start=new Date('2021-09-17T00:00:00.000Z').valueOf();
sats=[{"GP_ID":"184850709","COUNTRY_CODE":"US","MEAN_MOTION":"15.06411836","SEMIMAJOR_AXIS":"6925.312","OBJECT_TYPE":"PAYLOAD","ARG_OF_PERICENTER":"100.7393","OBJECT_NAME":"STARLINK-1183","RA_OF_ASC_NODE":"26.0285","APOAPSIS":"548.485","REF_FRAME":"TEME","SITE":"AFETR","TLE_LINE1":"1 45088U 20006AW  21259.77892437 -.00002998  00000-0 -18239-3 0  9995","MEAN_MOTION_DDOT":"0.0000000000000","OBJECT_ID":"2020-006AW","PERIOD":"95.591","RCS_SIZE":"LARGE","MEAN_ELEMENT_THEORY":"SGP4","TLE_LINE2":"2 45088  53.0560  26.0285 0001888 100.7393 259.3808 15.06411836 90602","LAUNCH_DATE":"2020-01-29","CLASSIFICATION_TYPE":"U","REV_AT_EPOCH":"9060","DECAY_DATE":null,"INCLINATION":"53.0560","EPHEMERIS_TYPE":"0","MEAN_MOTION_DOT":"-0.00002998","NORAD_CAT_ID":"45088","TIME_SYSTEM":"UTC","PERIAPSIS":"545.870","MEAN_ANOMALY":"259.3808","CENTER_NAME":"EARTH","FILE":"3117438","BSTAR":"-0.00018239000000","ECCENTRICITY":"0.00018880","EPOCH":"2021-09-16T18:41:39.065568","ELEMENT_SET_NO":"999"},{"NORAD_CAT_ID":"45089","TIME_SYSTEM":"UTC","REV_AT_EPOCH":"9061","DECAY_DATE":null,"INCLINATION":"53.0567","EPHEMERIS_TYPE":"0","MEAN_MOTION_DOT":"-0.00001349","CENTER_NAME":"EARTH","FILE":"3117438","BSTAR":"-0.00007172500000","PERIAPSIS":"546.111","MEAN_ANOMALY":"250.9655","ELEMENT_SET_NO":"999","ECCENTRICITY":"0.00016320","EPOCH":"2021-09-16T18:46:58.707552","MEAN_MOTION":"15.06391094","COUNTRY_CODE":"US","GP_ID":"184849962","SEMIMAJOR_AXIS":"6925.376","APOAPSIS":"548.371","SITE":"AFETR","REF_FRAME":"TEME","TLE_LINE1":"1 45089U 20006AX  21259.78262393 -.00001349  00000-0 -71725-4 0  9998","ARG_OF_PERICENTER":"109.1511","OBJECT_TYPE":"PAYLOAD","OBJECT_NAME":"STARLINK-1136","RA_OF_ASC_NODE":"26.0120","TLE_LINE2":"2 45089  53.0567  26.0120 0001632 109.1511 250.9655 15.06391094 90611","LAUNCH_DATE":"2020-01-29","CLASSIFICATION_TYPE":"U","MEAN_MOTION_DDOT":"0.0000000000000","OBJECT_ID":"2020-006AX","PERIOD":"95.593","RCS_SIZE":"LARGE","MEAN_ELEMENT_THEORY":"SGP4"},{"COUNTRY_CODE":"US","MEAN_MOTION":"15.06402551","GP_ID":"184849712","SEMIMAJOR_AXIS":"6925.341","REF_FRAME":"TEME","SITE":"AFETR","APOAPSIS":"548.072","TLE_LINE1":"1 45090U 20006AY  21259.76418423  .00001575  00000-0  12459-3 0  9992","OBJECT_NAME":"STARLINK-1176","OBJECT_TYPE":"PAYLOAD","ARG_OF_PERICENTER":"103.0954","RA_OF_ASC_NODE":"26.0850","TLE_LINE2":"2 45090  53.0559  26.0850 0001251 103.0954 257.0175 15.06402551 90600","LAUNCH_DATE":"2020-01-29","CLASSIFICATION_TYPE":"U","PERIOD":"95.592","OBJECT_ID":"2020-006AY","MEAN_MOTION_DDOT":"0.0000000000000","RCS_SIZE":"LARGE","MEAN_ELEMENT_THEORY":"SGP4","NORAD_CAT_ID":"45090","TIME_SYSTEM":"UTC","DECAY_DATE":null,"INCLINATION":"53.0559","EPHEMERIS_TYPE":"0","REV_AT_EPOCH":"9060","MEAN_MOTION_DOT":"0.00001575","FILE":"3117438","CENTER_NAME":"EARTH","BSTAR":"0.00012459000000","MEAN_ANOMALY":"257.0175","PERIAPSIS":"546.339","ELEMENT_SET_NO":"999","ECCENTRICITY":"0.00012510","EPOCH":"2021-09-16T18:20:25.517472"},{"REV_AT_EPOCH":"9054","DECAY_DATE":null,"INCLINATION":"53.0560","EPHEMERIS_TYPE":"0","MEAN_MOTION_DOT":"0.00000858","NORAD_CAT_ID":"45092","TIME_SYSTEM":"UTC","PERIAPSIS":"546.309","MEAN_ANOMALY":"259.8886","CENTER_NAME":"EARTH","FILE":"3117121","BSTAR":"0.00007650800000","ECCENTRICITY":"0.00013040","EPOCH":"2021-09-16T09:45:34.127136","ELEMENT_SET_NO":"999","GP_ID":"184820258","MEAN_MOTION":"15.06400536","COUNTRY_CODE":"US","SEMIMAJOR_AXIS":"6925.347","ARG_OF_PERICENTER":"100.2250","OBJECT_TYPE":"PAYLOAD","OBJECT_NAME":"STARLINK-1137","RA_OF_ASC_NODE":"27.6947","APOAPSIS":"548.115","SITE":"AFETR","REF_FRAME":"TEME","TLE_LINE1":"1 45092U 20006BA  21259.40664499  .00000858  00000-0  76508-4 0  9990","OBJECT_ID":"2020-006BA","MEAN_MOTION_DDOT":"0.0000000000000","PERIOD":"95.592","MEAN_ELEMENT_THEORY":"SGP4","RCS_SIZE":"LARGE","LAUNCH_DATE":"2020-01-29","TLE_LINE2":"2 45092  53.0560  27.6947 0001304 100.2250 259.8886 15.06400536 90548","CLASSIFICATION_TYPE":"U"},{"ARG_OF_PERICENTER":"106.9067","OBJECT_TYPE":"PAYLOAD","OBJECT_NAME":"STARLINK-1142","RA_OF_ASC_NODE":"26.2188","APOAPSIS":"548.362","SITE":"AFETR","REF_FRAME":"TEME","TLE_LINE1":"1 45093U 20006BB  21259.73469751  .00000901  00000-0  79416-4 0  9991","OBJECT_ID":"2020-006BB","MEAN_MOTION_DDOT":"0.0000000000000","PERIOD":"95.593","RCS_SIZE":"LARGE","MEAN_ELEMENT_THEORY":"SGP4","LAUNCH_DATE":"2020-01-29","TLE_LINE2":"2 45093  53.0560  26.2188 0001631 106.9067 253.2101 15.06393723 90595","CLASSIFICATION_TYPE":"U","GP_ID":"184851209","COUNTRY_CODE":"US","MEAN_MOTION":"15.06393723","SEMIMAJOR_AXIS":"6925.368","ECCENTRICITY":"0.00016310","EPOCH":"2021-09-16T17:37:57.864864","ELEMENT_SET_NO":"999","REV_AT_EPOCH":"9059","EPHEMERIS_TYPE":"0","DECAY_DATE":null,"INCLINATION":"53.0560","MEAN_MOTION_DOT":"0.00000901","NORAD_CAT_ID":"45093","TIME_SYSTEM":"UTC","PERIAPSIS":"546.103","MEAN_ANOMALY":"253.2101","CENTER_NAME":"EARTH","FILE":"3117438","BSTAR":"0.00007941600000"},{"REF_FRAME":"TEME","SITE":"AFETR","APOAPSIS":"548.206","TLE_LINE1":"1 45094U 20006BC  21259.61675366  .00001002  00000-0  86160-4 0  9997","OBJECT_TYPE":"PAYLOAD","ARG_OF_PERICENTER":"96.3655","OBJECT_NAME":"STARLINK-1146","RA_OF_ASC_NODE":"26.7366","LAUNCH_DATE":"2020-01-29","TLE_LINE2":"2 45094  53.0552  26.7366 0001406  96.3655 263.7494 15.06394006 90580","CLASSIFICATION_TYPE":"U","PERIOD":"95.593","OBJECT_ID":"2020-006BC","MEAN_MOTION_DDOT":"0.0000000000000","MEAN_ELEMENT_THEORY":"SGP4","RCS_SIZE":"LARGE","COUNTRY_CODE":"US","MEAN_MOTION":"15.06394006","GP_ID":"184849463","SEMIMAJOR_AXIS":"6925.367","ELEMENT_SET_NO":"999","ECCENTRICITY":"0.00014060","EPOCH":"2021-09-16T14:48:07.516224","NORAD_CAT_ID":"45094","TIME_SYSTEM":"UTC","DECAY_DATE":null,"EPHEMERIS_TYPE":"0","INCLINATION":"53.0552","REV_AT_EPOCH":"9058","MEAN_MOTION_DOT":"0.00001002","FILE":"3117438","CENTER_NAME":"EARTH","BSTAR":"0.00008616000000","MEAN_ANOMALY":"263.7494","PERIAPSIS":"546.258"},{"ECCENTRICITY":"0.00013020","EPOCH":"2021-09-16T18:04:30.762912","ELEMENT_SET_NO":"999","REV_AT_EPOCH":"9060","DECAY_DATE":null,"INCLINATION":"53.0565","EPHEMERIS_TYPE":"0","MEAN_MOTION_DOT":"-0.00000121","NORAD_CAT_ID":"45095","TIME_SYSTEM":"UTC","PERIAPSIS":"546.327","MEAN_ANOMALY":"253.1337","CENTER_NAME":"EARTH","FILE":"3117438","BSTAR":"0.00001077700000","OBJECT_NAME":"STARLINK-1147","OBJECT_TYPE":"PAYLOAD","ARG_OF_PERICENTER":"106.9795","RA_OF_ASC_NODE":"26.1363","APOAPSIS":"548.130","SITE":"AFETR","REF_FRAME":"TEME","TLE_LINE1":"1 45095U 20006BD  21259.75313383 -.00000121  00000-0  10777-4 0  9994","MEAN_MOTION_DDOT":"0.0000000000000","OBJECT_ID":"2020-006BD","PERIOD":"95.592","MEAN_ELEMENT_THEORY":"SGP4","RCS_SIZE":"LARGE","LAUNCH_DATE":"2020-01-29","TLE_LINE2":"2 45095  53.0565  26.1363 0001302 106.9795 253.1337 15.06395194 90605","CLASSIFICATION_TYPE":"U","GP_ID":"184850212","MEAN_MOTION":"15.06395194","COUNTRY_CODE":"US","SEMIMAJOR_AXIS":"6925.363"},{"COUNTRY_CODE":"US","MEAN_MOTION":"15.06401412","GP_ID":"184850964","SEMIMAJOR_AXIS":"6925.344","APOAPSIS":"548.342","REF_FRAME":"TEME","SITE":"AFETR","TLE_LINE1":"1 45096U 20006BE  21259.61305657  .00000988  00000-0  85242-4 0  9994","ARG_OF_PERICENTER":"107.1490","OBJECT_TYPE":"PAYLOAD","OBJECT_NAME":"STARLINK-1152","RA_OF_ASC_NODE":"26.7733","LAUNCH_DATE":"2020-01-29","TLE_LINE2":"2 45096  53.0562  26.7733 0001635 107.1490 252.9678 15.06401412 90576","CLASSIFICATION_TYPE":"U","MEAN_MOTION_DDOT":"0.0000000000000","OBJECT_ID":"2020-006BE","PERIOD":"95.592","RCS_SIZE":"LARGE","MEAN_ELEMENT_THEORY":"SGP4","NORAD_CAT_ID":"45096","TIME_SYSTEM":"UTC","REV_AT_EPOCH":"9057","INCLINATION":"53.0562","DECAY_DATE":null,"EPHEMERIS_TYPE":"0","MEAN_MOTION_DOT":"0.00000988","CENTER_NAME":"EARTH","FILE":"3117438","BSTAR":"0.00008524200000","PERIAPSIS":"546.077","MEAN_ANOMALY":"252.9678","ELEMENT_SET_NO":"999","EPOCH":"2021-09-16T14:42:48.087648","ECCENTRICITY":"0.00016350"},{"GP_ID":"184850710","COUNTRY_CODE":"US","MEAN_MOTION":"15.06398752","SEMIMAJOR_AXIS":"6925.352","OBJECT_TYPE":"PAYLOAD","OBJECT_NAME":"STARLINK-1184","ARG_OF_PERICENTER":"88.3659","RA_OF_ASC_NODE":"25.6598","APOAPSIS":"547.934","REF_FRAME":"TEME","SITE":"AFETR","TLE_LINE1":"1 45098U 20006BG  21259.86002917 -.00000446  00000-0 -11071-4 0  9996","OBJECT_ID":"2020-006BG","MEAN_MOTION_DDOT":"0.0000000000000","PERIOD":"95.592","RCS_SIZE":"LARGE","MEAN_ELEMENT_THEORY":"SGP4","TLE_LINE2":"2 45098  53.0556  25.6598 0001035  88.3659 271.7448 15.06398752 90610","LAUNCH_DATE":"2020-01-29","CLASSIFICATION_TYPE":"U","REV_AT_EPOCH":"9061","EPHEMERIS_TYPE":"0","DECAY_DATE":null,"INCLINATION":"53.0556","MEAN_MOTION_DOT":"-0.00000446","NORAD_CAT_ID":"45098","TIME_SYSTEM":"UTC","PERIAPSIS":"546.501","MEAN_ANOMALY":"271.7448","CENTER_NAME":"EARTH","FILE":"3117438","BSTAR":"-0.00001107100000","ECCENTRICITY":"0.00010350","EPOCH":"2021-09-16T20:38:26.520288","ELEMENT_SET_NO":"999"},{"COUNTRY_CODE":"US","MEAN_MOTION":"15.06388237","GP_ID":"184849963","SEMIMAJOR_AXIS":"6925.385","SITE":"AFETR","REF_FRAME":"TEME","APOAPSIS":"548.095","TLE_LINE1":"1 45099U 20006BH  21259.76050732 -.00000735  00000-0 -30488-4 0  9998","ARG_OF_PERICENTER":"105.5974","OBJECT_TYPE":"PAYLOAD","OBJECT_NAME":"STARLINK-1186","RA_OF_ASC_NODE":"26.0883","LAUNCH_DATE":"2020-01-29","TLE_LINE2":"2 45099  53.0546  26.0883 0001220 105.5974 254.5150 15.06388237 90605","CLASSIFICATION_TYPE":"U","PERIOD":"95.593","OBJECT_ID":"2020-006BH","MEAN_MOTION_DDOT":"0.0000000000000","RCS_SIZE":"LARGE","MEAN_ELEMENT_THEORY":"SGP4","NORAD_CAT_ID":"45099","TIME_SYSTEM":"UTC","INCLINATION":"53.0546","DECAY_DATE":null,"EPHEMERIS_TYPE":"0","REV_AT_EPOCH":"9060","MEAN_MOTION_DOT":"-0.00000735","FILE":"3117438","CENTER_NAME":"EARTH","BSTAR":"-0.00003048800000","MEAN_ANOMALY":"254.5150","PERIAPSIS":"546.405","ELEMENT_SET_NO":"999","ECCENTRICITY":"0.00012200","EPOCH":"2021-09-16T18:15:07.832448"}];
